{
  "norad_id": 63310,
  "name": "STARLINK-11587 [DTC]",
  "history": [
    {
      "epoch": "2026-03-28T21:23:10.423104",
      "apogee_km": 356.5827517048974,
      "perigee_km": 355.68709353918985,
      "latitude_deg": -42.96839348927833,
      "longitude_deg": -123.45508543984033,
      "semi_major_axis_km": 6734.271922622043,
      "eccentricity": 6.65e-05,
      "inclination_deg": 43.0007,
      "raan_deg": 149.1368,
      "arg_perigee_deg": 309.7673,
      "mean_anomaly_deg": 50.3136,
      "mean_motion_rev_day": 15.70966011
    }
  ]
}